{"type":"FeatureCollection","name":"city_districts_ru","features":[{"type":"Feature","properties":{"name_ru":"Ворошиловский район","region_ru":"Волгоградская область","host_city_ru":"Волгоград","district_kind":"city","gid_2":"RU.CITY.VGG.VOROSHILOVSKY","country":"RU"},"geometry":{"type":"MultiPolygon","coordinates":[[[[44.456589,48.6886449],[44.4576712,48.6881584],[44.4578147,48.6880939],[44.4599579,48.6871292],[44.4637491,48.6854556],[44.4648948,48.6852607],[44.4660733,48.685226],[44.4676584,48.6852985],[44.4686068,48.6854651],[44.4690507,48.6855931],[44.4693778,48.6858259],[44.4719956,48.687795],[44.4740985,48.6893673],[44.4799329,48.6923193],[44.4846965,48.6953362],[44.4873144,48.6978572],[44.4902219,48.7016031],[44.4905358,48.7023328],[44.4908727,48.7031161],[44.491916,48.7037446],[44.4915951,48.703984],[44.4926781,48.704663],[44.4916119,48.7053698],[44.4906651,48.7059921],[44.4899539,48.7064843],[44.4899164,48.7065462],[44.4897589,48.7066818],[44.4896186,48.7067852],[44.489344,48.7070161],[44.4892733,48.7070756],[44.4886197,48.7074898],[44.4881125,48.7072173],[44.4865605,48.7062467],[44.482819,48.7041876],[44.4750406,48.6997975],[44.4699122,48.6968092],[44.4619534,48.6920303],[44.456589,48.6886449]]],[[[44.4788913,48.6836163],[44.4789784,48.6831966],[44.4792899,48.6830523],[44.4797451,48.6828127],[44.4800805,48.6830152],[44.4828566,48.6833127],[44.4843506,48.6834331],[44.4850614,48.6836208],[44.4855495,48.6837801],[44.4857346,48.6838226],[44.4872075,48.6842928],[44.4871713,48.6845816],[44.4871404,48.6848276],[44.4900372,48.6856669],[44.4912656,48.6863894],[44.4909706,48.6865594],[44.4879209,48.685473],[44.487536,48.6858228],[44.4882705,48.6861138],[44.4916143,48.6874571],[44.4923975,48.6877139],[44.4918235,48.6882203],[44.4919577,48.6883336],[44.4934972,48.6883584],[44.4950315,48.6891835],[44.4964208,48.6894279],[44.4983735,48.6907877],[44.5015647,48.6925234],[44.5022246,48.6923286],[44.5046198,48.6934033],[44.5053198,48.6940159],[44.5053072,48.6942855],[44.5065222,48.6948795],[44.5070908,48.6954194],[44.5086573,48.6957523],[44.5096309,48.6965472],[44.5091052,48.6968198],[44.5101525,48.6971722],[44.5105468,48.6972633],[44.5114534,48.6978032],[44.5116353,48.6980381],[44.511607,48.698221],[44.5107834,48.6990642],[44.5103637,48.6992392],[44.5100886,48.6991184],[44.5099206,48.6987763],[44.5089789,48.6994719],[44.5085494,48.6994606],[44.5075245,48.7001594],[44.5074273,48.7000905],[44.5067941,48.7005073],[44.5061862,48.7004952],[44.5058221,48.7004879],[44.5030428,48.702421],[44.5017125,48.7019678],[44.5008739,48.7026285],[44.4999908,48.7032151],[44.4975223,48.7019938],[44.4969544,48.7023853],[44.4974236,48.7028487],[44.4945027,48.704531],[44.4912411,48.7007782],[44.4874753,48.6967632],[44.4877435,48.6962675],[44.4869871,48.6952725],[44.4888915,48.6937676],[44.485969,48.691975],[44.4884682,48.6899185],[44.4832499,48.686763],[44.4833142,48.6866355],[44.4853366,48.6849993],[44.4847894,48.684847],[44.4842852,48.6851693],[44.4840657,48.6852121],[44.4838701,48.6850941],[44.4831756,48.6846812],[44.4818046,48.6844885],[44.4816742,48.684476],[44.481601,48.6845287],[44.4809225,48.6844672],[44.4793261,48.6840544],[44.4788913,48.6836163]],[[44.4973352,48.6953801],[44.5009506,48.697491],[44.5017413,48.6979726],[44.5021518,48.6976789],[44.5021913,48.6976507],[44.5022613,48.6976933],[44.502969,48.697187],[44.5030198,48.6971009],[44.5036385,48.6966583],[44.5036651,48.6966409],[44.5026113,48.6960327],[44.5016527,48.6954868],[44.5012668,48.6952753],[44.4998527,48.6962411],[44.4991138,48.6957931],[44.4988473,48.6956315],[44.4983567,48.6953549],[44.498863,48.6949915],[44.4991188,48.6948079],[44.4997875,48.6943279],[44.4992972,48.6940405],[44.4981676,48.6948278],[44.4973995,48.6953353],[44.4973352,48.6953801]]]]}},{"type":"Feature","properties":{"name_ru":"Дзержинский район","region_ru":"Волгоградская область","host_city_ru":"Волгоград","district_kind":"city","gid_2":"RU.CITY.VGG.DZERZHINSKY","country":"RU"},"geometry":{"type":"Polygon","coordinates":[[[44.3068971,48.771345],[44.306962,48.7712766],[44.3072403,48.770983],[44.3079267,48.7705985],[44.309208,48.7706211],[44.311172,48.7703485],[44.3130003,48.770861],[44.3200407,48.7730406],[44.3194707,48.7738833],[44.3287525,48.7764547],[44.3344931,48.7759425],[44.335973,48.7763465],[44.3384585,48.7780576],[44.3399089,48.7790594],[44.3417307,48.779241],[44.3641227,48.7723411],[44.3695584,48.7705107],[44.3559679,48.7635562],[44.3714601,48.7630647],[44.3751355,48.7635587],[44.3777243,48.7648068],[44.3800601,48.7664333],[44.3815976,48.7681187],[44.3842907,48.7668318],[44.3867157,48.7655305],[44.3887973,48.7635694],[44.3882658,48.7628437],[44.3892211,48.7624759],[44.3944328,48.7604691],[44.3966174,48.762905],[44.4027275,48.760958],[44.4055181,48.7593945],[44.4064311,48.7589498],[44.4068912,48.7587424],[44.4072614,48.7585541],[44.4091062,48.7575256],[44.410466,48.7578296],[44.4113791,48.757929],[44.4125057,48.7578349],[44.4140441,48.7575835],[44.41431,48.75754],[44.4149886,48.7574486],[44.415548,48.7574524],[44.4159971,48.757527],[44.4160786,48.7575405],[44.4167211,48.757819],[44.4171668,48.7580712],[44.4172354,48.75811],[44.4174897,48.7584036],[44.4176274,48.7586064],[44.4203127,48.7583792],[44.4192388,48.7574947],[44.4182634,48.7541123],[44.4170187,48.7539835],[44.4154706,48.7533134],[44.4141999,48.7520289],[44.4126049,48.7516723],[44.4116955,48.7508618],[44.4125883,48.7499473],[44.4127865,48.7498901],[44.413028,48.7498155],[44.4133744,48.749429],[44.4137607,48.7494993],[44.4141604,48.7491567],[44.4148798,48.7489371],[44.4151729,48.7486911],[44.4154927,48.7486032],[44.4160605,48.7485063],[44.4162775,48.7482319],[44.4161455,48.7480498],[44.4166384,48.7476369],[44.4167211,48.7475929],[44.416753,48.7475065],[44.4167033,48.7473707],[44.4167793,48.7471088],[44.4167698,48.7468388],[44.417158,48.7460732],[44.4168338,48.7461411],[44.4168213,48.7457534],[44.4168504,48.7453312],[44.4167505,48.7440176],[44.4172784,48.7435638],[44.4164048,48.743077],[44.4153907,48.7401452],[44.4137967,48.731376],[44.4120808,48.7215617],[44.4116725,48.7192258],[44.411664,48.7183272],[44.412385,48.7185138],[44.4128558,48.7185899],[44.4133887,48.7186192],[44.4137173,48.7187423],[44.4146233,48.7184552],[44.4154521,48.7180083],[44.4159578,48.7180539],[44.4161833,48.7180899],[44.4164198,48.7180803],[44.4165872,48.71821],[44.4164889,48.7184884],[44.4163252,48.718618],[44.4163266,48.7187946],[44.4165085,48.7189558],[44.4165653,48.7191546],[44.4164914,48.7194284],[44.4166108,48.7196384],[44.4164858,48.7200247],[44.4168211,48.7204709],[44.4176056,48.7205384],[44.4181627,48.7203509],[44.4189244,48.7198071],[44.4196349,48.7195484],[44.4204365,48.7196234],[44.4210163,48.7196609],[44.4218007,48.7195109],[44.4224942,48.7192859],[44.4226591,48.7187646],[44.4223521,48.7182958],[44.4222555,48.7179207],[44.4227955,48.7177257],[44.4235288,48.7181195],[44.4240006,48.718577],[44.4244667,48.7187196],[44.4249556,48.7184758],[44.4247055,48.7179957],[44.4246884,48.7176094],[44.4251034,48.7174144],[44.4255866,48.7176207],[44.4271366,48.7176759],[44.4284245,48.7180495],[44.4283023,48.7195657],[44.4287464,48.7199173],[44.4292682,48.7199246],[44.4299455,48.7198587],[44.4305339,48.7202176],[44.4314998,48.7202982],[44.432166,48.7201297],[44.4316664,48.7192361],[44.4313,48.7185988],[44.432166,48.718467],[44.4323894,48.7184692],[44.4326031,48.7184714],[44.4328988,48.7184743],[44.4335982,48.7185842],[44.435741,48.7181374],[44.4384167,48.7174049],[44.4385811,48.7173791],[44.4387685,48.7173496],[44.4391161,48.717295],[44.4404262,48.716643],[44.4417918,48.7168481],[44.4434461,48.7165698],[44.4447812,48.7165689],[44.4460358,48.7172208],[44.4468565,48.7172614],[44.4472542,48.7172364],[44.4478455,48.7172355],[44.4488558,48.7168839],[44.4495636,48.7170533],[44.4499625,48.7171154],[44.4502763,48.7171538],[44.4503926,48.7171563],[44.4505008,48.7171586],[44.4507098,48.7171631],[44.4522237,48.7169532],[44.4524736,48.7172134],[44.452689,48.7172402],[44.4528607,48.7171577],[44.453076,48.7170866],[44.4533176,48.7170847],[44.453448,48.7171498],[44.4536779,48.7170127],[44.4541727,48.7168606],[44.4543531,48.716823],[44.4544439,48.7167677],[44.4545114,48.7167723],[44.4547815,48.7166279],[44.455067,48.7166094],[44.4551401,48.7165661],[44.4551326,48.7164865],[44.4553821,48.7163666],[44.4555501,48.7162732],[44.4555991,48.716215],[44.4556965,48.7160577],[44.4557243,48.7160363],[44.4557904,48.7160243],[44.456008,48.7160145],[44.4562269,48.7159394],[44.4565063,48.7159024],[44.4566814,48.7158593],[44.4569999,48.7158317],[44.4570707,48.7158139],[44.4571892,48.7158022],[44.4574811,48.715831],[44.4579375,48.7158771],[44.4580425,48.7158946],[44.4581361,48.715918],[44.4582411,48.715935],[44.4583352,48.7159725],[44.4583783,48.7160267],[44.4584551,48.716054],[44.4586149,48.7160647],[44.4587432,48.7160458],[44.458874,48.7160022],[44.4591751,48.7159108],[44.459436,48.7158636],[44.4595716,48.7158508],[44.4597093,48.7158234],[44.459817,48.7157858],[44.4599623,48.7157187],[44.4601254,48.7157049],[44.4602597,48.7157256],[44.4603496,48.7157317],[44.4605097,48.7157816],[44.4607146,48.715866],[44.4610926,48.7160051],[44.4611529,48.7160184],[44.4613173,48.7160644],[44.4613904,48.7161171],[44.4614349,48.7161419],[44.4614894,48.7161511],[44.4615685,48.7161412],[44.4616849,48.716087],[44.4617763,48.7160433],[44.4618741,48.7160034],[44.461943,48.7159363],[44.4619841,48.7158263],[44.4620891,48.7156331],[44.462319,48.715226],[44.4634975,48.7144078],[44.4640511,48.7140921],[44.4661326,48.7139193],[44.4664071,48.7138468],[44.4671711,48.7136812],[44.4672979,48.7136521],[44.4676887,48.7135302],[44.4688264,48.7133122],[44.4696072,48.7131457],[44.4707583,48.7129488],[44.4715968,48.7133098],[44.4724696,48.7138997],[44.473494,48.7137833],[44.4739546,48.7135527],[44.4739629,48.7128269],[44.4735212,48.7124744],[44.4732524,48.7123815],[44.4729539,48.7120674],[44.4732879,48.7118282],[44.4739061,48.7116032],[44.4744388,48.7117094],[44.4750527,48.7117694],[44.475502,48.7121622],[44.4755054,48.7122322],[44.4755601,48.7123185],[44.4758758,48.7123755],[44.4765489,48.7120665],[44.4772901,48.7117124],[44.4774356,48.7116074],[44.4775798,48.7111866],[44.477527,48.7109574],[44.4775734,48.710685],[44.4778259,48.7105194],[44.4781073,48.7104875],[44.478604,48.7103483],[44.4789293,48.7103309],[44.4798046,48.7099732],[44.4804108,48.7095012],[44.481608,48.7092546],[44.4820912,48.7090973],[44.4830438,48.7085671],[44.4833204,48.7084803],[44.48387,48.7083571],[44.4843909,48.7081685],[44.4849184,48.7080887],[44.48513,48.7080918],[44.4861055,48.7083855],[44.4866111,48.7084901],[44.487126,48.7086128],[44.4872436,48.7086563],[44.487372,48.7087277],[44.487481,48.7087883],[44.4875417,48.7088338],[44.4875886,48.708869],[44.487652,48.7089165],[44.4878628,48.7090237],[44.487992,48.7090842],[44.4880503,48.7090907],[44.4882393,48.7090668],[44.4883123,48.7090253],[44.4884125,48.7089735],[44.4884915,48.7089282],[44.4887415,48.7087909],[44.4889099,48.7086096],[44.4953287,48.7124654],[44.5033054,48.7174935],[44.5075353,48.7200803],[44.508147,48.7204543],[44.514626,48.7245343],[44.5199202,48.7278702],[44.5264515,48.7319847],[44.5266344,48.7321599],[44.5275534,48.7327432],[44.5278034,48.7330352],[44.5279206,48.7332414],[44.5288327,48.7359612],[44.5290359,48.7368531],[44.5290066,48.7376082],[44.5289383,48.7378553],[44.5286692,48.7384357],[44.5283905,48.738842],[44.5279156,48.7393529],[44.5271803,48.7399377],[44.5256629,48.7408508],[44.5252207,48.7412648],[44.5249171,48.7417258],[44.5247865,48.7422679],[44.5248407,48.7426891],[44.5250845,48.7441708],[44.5257035,48.746932],[44.5259738,48.7474058],[44.5268223,48.7488929],[44.5272668,48.749672],[44.5284726,48.7514366],[44.5279656,48.7517502],[44.5272067,48.7523494],[44.5266782,48.7528917],[44.5262678,48.7534385],[44.5258861,48.7539983],[44.5255531,48.7547013],[44.5249696,48.7565667],[44.5245643,48.7577696],[44.5244787,48.7579823],[44.5243514,48.7582771],[44.5240822,48.7587702],[44.5237266,48.7592923],[44.522472,48.7608312],[44.5210251,48.762518],[44.5205058,48.7630344],[44.5198796,48.7635593],[44.5196852,48.7637014],[44.5191753,48.7640755],[44.5187077,48.7643775],[44.5179864,48.764799],[44.5174689,48.7650576],[44.5168305,48.7653539],[44.5157966,48.7658208],[44.5129793,48.767082],[44.5122513,48.7674728],[44.5115911,48.7678921],[44.5068553,48.7717915],[44.5063342,48.7722654],[44.5060177,48.772637],[44.5056297,48.7731666],[44.5053947,48.7735915],[44.5052208,48.7739835],[44.5050955,48.7743755],[44.5049848,48.7748702],[44.5049539,48.7753515],[44.5049598,48.7761409],[44.5050725,48.7768755],[44.5061896,48.781386],[44.5062951,48.7820532],[44.5062901,48.7827026],[44.5062119,48.783146],[44.5059906,48.7838346],[44.5057576,48.7842964],[44.50529,48.7849962],[44.5049302,48.7854045],[44.5044787,48.7858181],[44.5037071,48.7864022],[44.5027716,48.7869162],[44.5020199,48.7872479],[44.5015505,48.7874178],[44.5003875,48.7877284],[44.4940756,48.7887975],[44.4891215,48.7896725],[44.489273,48.7901127],[44.486572,48.7905642],[44.4830674,48.7905271],[44.4811068,48.7903424],[44.478691,48.7894944],[44.4777923,48.7885923],[44.4772844,48.7888794],[44.4766091,48.7881778],[44.4763624,48.7882377],[44.4755183,48.7873051],[44.4756601,48.7872042],[44.4749813,48.7864247],[44.4748444,48.7857404],[44.4726578,48.7836534],[44.4712408,48.7822547],[44.4653133,48.7787737],[44.4650737,48.7786315],[44.4631476,48.7773745],[44.4618802,48.776619],[44.4610469,48.7761223],[44.461295,48.7757743],[44.4586167,48.7742098],[44.4582073,48.7743933],[44.453759,48.7721014],[44.4504597,48.7708934],[44.4427141,48.7696747],[44.4417744,48.770407],[44.4405511,48.7709446],[44.43911,48.7711686],[44.4384247,48.7721541],[44.4377547,48.7720214],[44.4363953,48.7715463],[44.4353694,48.7709505],[44.4344968,48.7707371],[44.4336062,48.7706541],[44.4324367,48.7705829],[44.4311561,48.7706411],[44.4302603,48.7709006],[44.4293411,48.770598],[44.4281364,48.7707531],[44.4268818,48.7712571],[44.4263522,48.7716165],[44.4312223,48.7741758],[44.4349376,48.7740276],[44.4345148,48.7760492],[44.4324097,48.7760433],[44.4310237,48.776024],[44.430043,48.7768824],[44.43003,48.7769621],[44.4299168,48.7776547],[44.4289822,48.7782394],[44.4270211,48.7784205],[44.4247451,48.77698],[44.4236386,48.7765531],[44.4232248,48.7767725],[44.4229819,48.7766183],[44.4225286,48.7767382],[44.4213646,48.7767532],[44.4215304,48.777416],[44.4211799,48.7783199],[44.4206764,48.7787698],[44.4198164,48.7788492],[44.4188554,48.7792176],[44.4179507,48.7790106],[44.4162088,48.7798137],[44.4158796,48.7804451],[44.4146731,48.7811799],[44.4142416,48.7817186],[44.4129932,48.7822373],[44.4106407,48.7824764],[44.4079904,48.7839295],[44.405992,48.7850251],[44.4049683,48.7865852],[44.4042895,48.7868009],[44.401439,48.7889998],[44.4014774,48.7903238],[44.4030139,48.7913131],[44.4034809,48.7916137],[44.4034771,48.7919354],[44.4072091,48.793251],[44.4065367,48.7937428],[44.4047288,48.793295],[44.4006681,48.7932818],[44.3983982,48.7924464],[44.3975432,48.7927714],[44.3967292,48.7925963],[44.3960483,48.7929953],[44.3954745,48.7929742],[44.3948419,48.7924556],[44.3937468,48.7925478],[44.3928395,48.7921892],[44.3921225,48.7919751],[44.3904031,48.7916167],[44.3887962,48.7915571],[44.3875749,48.791022],[44.386483,48.7898358],[44.3804758,48.7956578],[44.3748467,48.802259],[44.3710994,48.80016],[44.3699243,48.8005095],[44.3687341,48.7996391],[44.3680872,48.7996627],[44.3674698,48.7994657],[44.3670559,48.7985896],[44.3666968,48.7985896],[44.365549,48.7980162],[44.3605525,48.7963875],[44.3532918,48.8045187],[44.3522029,48.804302],[44.3501792,48.8022713],[44.3492286,48.8026378],[44.3462739,48.8013056],[44.3377163,48.7948585],[44.3421625,48.7938572],[44.3414503,48.7928728],[44.3404576,48.7928813],[44.3371975,48.7934954],[44.3338155,48.7935385],[44.3313202,48.7944267],[44.3286879,48.7950438],[44.3271034,48.7948707],[44.3236323,48.7943384],[44.3197719,48.7930416],[44.3196737,48.7929712],[44.3194672,48.7928401],[44.3193295,48.792668],[44.3192944,48.7925407],[44.3193061,48.7923848],[44.3197521,48.7915614],[44.3258188,48.7801931],[44.3258943,48.7798776],[44.3258444,48.7796117],[44.315845,48.7764062],[44.3153742,48.776582],[44.3147544,48.7766388],[44.3112631,48.7755841],[44.3113887,48.7749895],[44.3104572,48.7747739],[44.308823,48.7728599],[44.3079153,48.7726418],[44.3072403,48.772589],[44.3071585,48.7719436],[44.3068971,48.771345]]]}},{"type":"Feature","properties":{"name_ru":"Центральный район","region_ru":"Волгоградская область","host_city_ru":"Волгоград","district_kind":"city","gid_2":"RU.CITY.VGG.CENTRALNY","country":"RU"},"geometry":{"type":"Polygon","coordinates":[[[44.4889099,48.7086096],[44.4895106,48.7081498],[44.489764,48.7079633],[44.4898982,48.7078683],[44.4901296,48.7077219],[44.4904611,48.7074853],[44.4909868,48.7073817],[44.4913849,48.707364],[44.491563,48.7073895],[44.4923926,48.707552],[44.492642,48.7075387],[44.4928228,48.7075313],[44.4931837,48.7075111],[44.4933441,48.7075037],[44.4935069,48.7075092],[44.4939562,48.7074982],[44.4942493,48.707524],[44.4945732,48.7075093],[44.4948021,48.7074872],[44.4951442,48.7073618],[44.4954945,48.7072304],[44.496215,48.7069601],[44.496841,48.7067593],[44.4973298,48.7065924],[44.4975996,48.7064941],[44.4978641,48.706397],[44.497983,48.7063538],[44.4981329,48.7063055],[44.4984072,48.7061775],[44.4989077,48.7060083],[44.4993858,48.7058467],[44.4998593,48.7056864],[44.5006966,48.705403],[44.5016403,48.7050835],[44.5032451,48.7045402],[44.5041417,48.7042288],[44.5046649,48.7041283],[44.5054986,48.7036566],[44.5057125,48.7035229],[44.5058951,48.7034185],[44.5060257,48.7033085],[44.5063028,48.7031507],[44.5065872,48.7029534],[44.5070012,48.7027464],[44.5071459,48.7026021],[44.5082968,48.701619],[44.5084013,48.7015517],[44.5086118,48.7014185],[44.5087751,48.7013177],[44.5089293,48.7012193],[44.5092437,48.7010246],[44.5095652,48.7008193],[44.5099526,48.7005661],[44.5103807,48.7002863],[44.5105483,48.7001785],[44.5107137,48.7000687],[44.5111052,48.6998153],[44.5114046,48.6996214],[44.5114633,48.6995836],[44.5116307,48.6994753],[44.5120099,48.6992299],[44.5121373,48.6991379],[44.5121494,48.6991292],[44.5121772,48.6991091],[44.5122421,48.6990623],[44.5124583,48.6989398],[44.512977,48.6986042],[44.5134104,48.6983237],[44.5137205,48.698123],[44.5140754,48.6978934],[44.5206227,48.6936564],[44.5327809,48.7041999],[44.5440599,48.7139791],[44.5544157,48.7233067],[44.5653452,48.7368369],[44.5577245,48.7391919],[44.5516711,48.741063],[44.5504765,48.7393816],[44.5500573,48.7395191],[44.5499848,48.739425],[44.5498399,48.7394717],[44.5497393,48.7393294],[44.5458398,48.7405959],[44.5457816,48.7409766],[44.5430121,48.7419701],[44.5431063,48.7424848],[44.5431001,48.7434199],[44.5429124,48.7441669],[44.5426201,48.7449928],[44.542105,48.7459321],[44.5413725,48.7467571],[44.5404772,48.7474725],[44.539478,48.748073],[44.5378994,48.7487043],[44.5317847,48.7502062],[44.530923,48.7504615],[44.5300357,48.7507964],[44.52891,48.7513261],[44.5284726,48.7514366],[44.5272668,48.749672],[44.5268223,48.7488929],[44.5259738,48.7474058],[44.5257035,48.746932],[44.5250845,48.7441708],[44.5248407,48.7426891],[44.5247865,48.7422679],[44.5249171,48.7417258],[44.5252207,48.7412648],[44.5256629,48.7408508],[44.5271803,48.7399377],[44.5279156,48.7393529],[44.5283905,48.738842],[44.5286692,48.7384357],[44.5289383,48.7378553],[44.5290066,48.7376082],[44.5290359,48.7368531],[44.5288327,48.7359612],[44.5279206,48.7332414],[44.5278034,48.7330352],[44.5275534,48.7327432],[44.5266344,48.7321599],[44.5264515,48.7319847],[44.5199202,48.7278702],[44.514626,48.7245343],[44.508147,48.7204543],[44.5075353,48.7200803],[44.5033054,48.7174935],[44.4953287,48.7124654],[44.4889099,48.7086096]]]}},{"type":"Feature","properties":{"name_ru":"Кировский район","region_ru":"Волгоградская область","host_city_ru":"Волгоград","district_kind":"city","gid_2":"RU.CITY.VGG.KIROVSKY","country":"RU"},"geometry":{"type":"Polygon","coordinates":[[[44.3283822,48.5901544],[44.3289533,48.5889724],[44.3600323,48.5979668],[44.3620419,48.5997497],[44.3648636,48.5988202],[44.3662262,48.5967768],[44.363485,48.5957239],[44.3633455,48.5940223],[44.369914,48.592831],[44.3743543,48.5816926],[44.3656683,48.5799433],[44.3655507,48.5768927],[44.373672,48.5683723],[44.3714441,48.5635552],[44.3720858,48.5602978],[44.3646935,48.5576443],[44.3456729,48.5685737],[44.3391981,48.5640033],[44.34024,48.5633185],[44.3488044,48.5586135],[44.3620391,48.5513419],[44.3862989,48.537278],[44.3904841,48.534894],[44.3908071,48.5348704],[44.3923074,48.5338396],[44.3820492,48.5311063],[44.4103637,48.512487],[44.4260134,48.5063938],[44.4277042,48.5079313],[44.4279482,48.5083772],[44.4286466,48.5089795],[44.4289441,48.5094911],[44.4289506,48.5097054],[44.4282823,48.510515],[44.4281498,48.510886],[44.4280415,48.5114244],[44.4280716,48.5116278],[44.4286676,48.5125411],[44.428671,48.5130402],[44.4283064,48.5134824],[44.4281739,48.5137456],[44.4282823,48.5141045],[44.4289146,48.514876],[44.4297332,48.5162621],[44.4299705,48.5166232],[44.4323258,48.5184261],[44.4569512,48.5357033],[44.4582036,48.5366709],[44.4604351,48.5352353],[44.4626657,48.5367818],[44.4631171,48.5364942],[44.46947,48.541078],[44.4718847,48.5428202],[44.4668134,48.5489514],[44.4683536,48.5495135],[44.4702261,48.550079],[44.469575,48.5512006],[44.4779339,48.553359],[44.4829664,48.5566543],[44.4861058,48.5548663],[44.4929426,48.55133],[44.4991631,48.5487209],[44.5085778,48.5463837],[44.5210187,48.5436877],[44.5257447,48.542451],[44.530863,48.541709],[44.5408195,48.5412514],[44.5482354,48.5408309],[44.5552964,48.5409298],[44.565365,48.5425376],[44.5725007,48.5441701],[44.5813737,48.5472617],[44.5901346,48.5497472],[44.5998482,48.5513053],[44.6087773,48.5525046],[44.6140748,48.5572157],[44.6086978,48.5631468],[44.6065022,48.5670159],[44.6068954,48.5692243],[44.6100459,48.5727531],[44.6165032,48.574753],[44.6369923,48.5739575],[44.6424293,48.5754714],[44.6449613,48.578112],[44.6473217,48.5813487],[44.6489524,48.5872252],[44.6485233,48.5896949],[44.6473646,48.5923915],[44.6443605,48.5940662],[44.6389961,48.5958543],[44.6299652,48.5998589],[44.6196772,48.6135748],[44.5925146,48.6255306],[44.5648643,48.6225035],[44.5273815,48.6183997],[44.5160031,48.6241913],[44.5189458,48.6423058],[44.5201596,48.6475063],[44.5262905,48.653045],[44.5355998,48.6726542],[44.5387737,48.6855921],[44.5440599,48.7139791],[44.5327809,48.7041999],[44.5206227,48.6936564],[44.5137187,48.6892127],[44.5026465,48.6826383],[44.4913748,48.6760318],[44.490715,48.6755666],[44.4878343,48.6735224],[44.4852873,48.6707975],[44.4780775,48.663325],[44.4681643,48.6534323],[44.4656053,48.6508783],[44.4638232,48.6490995],[44.4573386,48.6421441],[44.453913,48.6381778],[44.4512361,48.634205],[44.4489699,48.6305231],[44.4406876,48.632276],[44.4381267,48.6336031],[44.437655,48.6338479],[44.4370363,48.6327282],[44.4337584,48.6335255],[44.4299522,48.6344222],[44.4292624,48.6345588],[44.4290876,48.6340685],[44.4283876,48.6342505],[44.4280997,48.6343436],[44.4277891,48.634334],[44.4273541,48.6343559],[44.426681,48.6344531],[44.426184,48.6345914],[44.4259707,48.6345695],[44.4255088,48.634423],[44.4253224,48.6343053],[44.4248026,48.6341835],[44.4245354,48.6341712],[44.4242952,48.6341999],[44.424115,48.6341041],[44.42391,48.6341287],[44.4236014,48.6342957],[44.4232017,48.6343888],[44.4225141,48.6345229],[44.4222283,48.6345229],[44.4219963,48.6344901],[44.4217229,48.6344887],[44.421464,48.6345229],[44.4210871,48.634553],[44.4201013,48.6344846],[44.4197849,48.634509],[44.4191776,48.6345558],[44.4185956,48.6345284],[44.4173695,48.6346037],[44.4167441,48.6348801],[44.4164976,48.6348706],[44.4161787,48.6348117],[44.4159405,48.6347925],[44.415723,48.6348144],[44.4149374,48.6350202],[44.4147745,48.6351306],[44.414615,48.6351457],[44.4141698,48.6351226],[44.4135515,48.635182],[44.4131356,48.6353446],[44.4125615,48.6353523],[44.4118,48.6354801],[44.4109974,48.6357743],[44.4104818,48.6358673],[44.409984,48.6358439],[44.408379,48.6359252],[44.4079103,48.6359949],[44.4071457,48.6360161],[44.406358,48.6360065],[44.4043781,48.6362272],[44.4038157,48.6363704],[44.4035873,48.6365369],[44.4029019,48.6368349],[44.4020324,48.6373364],[44.4030884,48.6303579],[44.4102082,48.6306286],[44.4105167,48.6284959],[44.4103655,48.628476],[44.4101994,48.6284384],[44.4097505,48.628383],[44.4093061,48.6283108],[44.4090742,48.628298],[44.408959,48.6282861],[44.4087465,48.6283148],[44.4085999,48.6283128],[44.4082077,48.6282124],[44.4076924,48.6281844],[44.407338,48.6281928],[44.4069148,48.6281635],[44.4068608,48.6280383],[44.406792,48.6280194],[44.4067476,48.6280558],[44.4066164,48.6280572],[44.4065381,48.6280851],[44.4064894,48.6280544],[44.406427,48.6280453],[44.4063794,48.6280656],[44.4063307,48.6281187],[44.4063011,48.6281691],[44.4062545,48.6281831],[44.4061481,48.6281746],[44.406062,48.628011],[44.4058165,48.6278516],[44.4056345,48.627783],[44.405461,48.6277383],[44.4052854,48.6277341],[44.4052007,48.6277481],[44.4049066,48.627632],[44.4047077,48.6275677],[44.4045236,48.6275313],[44.4040898,48.6273788],[44.4039247,48.6272823],[44.4037851,48.6271565],[44.403675,48.6271383],[44.4035544,48.6272152],[44.4034666,48.6271915],[44.4034169,48.6270264],[44.4032751,48.6268935],[44.4029916,48.6267341],[44.402361,48.6266082],[44.4019843,48.6266418],[44.4016309,48.6265746],[44.4014235,48.6264585],[44.4012162,48.6262865],[44.4007739,48.6263508],[44.4005052,48.6262977],[44.4004628,48.6261984],[44.4004,48.6261875],[44.4002237,48.6262921],[44.4002026,48.6263662],[44.4001285,48.6264138],[44.4000227,48.6264418],[44.3999148,48.6264963],[44.3997942,48.6264935],[44.3996503,48.626404],[44.3995608,48.6262643],[44.3986515,48.6260236],[44.397494,48.6259201],[44.3970165,48.625826],[44.3966724,48.625737],[44.3962852,48.6255671],[44.3956842,48.6254762],[44.3955668,48.6253314],[44.3954948,48.6252741],[44.3953097,48.6252818],[44.395069,48.625204],[44.3949245,48.6252447],[44.3948057,48.6252265],[44.394733,48.6252419],[44.3946708,48.6252414],[44.3945466,48.6251455],[44.3945122,48.6251861],[44.3944688,48.6252681],[44.3944119,48.6253196],[44.3942518,48.6251771],[44.3941905,48.625187],[44.3941217,48.6252385],[44.3939885,48.625281],[44.3936204,48.6252464],[44.3935067,48.6252197],[44.3932822,48.6251297],[44.3932299,48.6251396],[44.3932299,48.6251999],[44.3932508,48.6252493],[44.3932389,48.6253117],[44.3932029,48.6253382],[44.3931132,48.6253245],[44.3929665,48.6251801],[44.392796,48.6251643],[44.3925012,48.6252213],[44.3920313,48.6251376],[44.3917575,48.6251071],[44.3916363,48.6251287],[44.3911935,48.6253236],[44.3910665,48.6254915],[44.3908042,48.6255334],[44.3903132,48.6254719],[44.3901897,48.625553],[44.389763,48.6253488],[44.3890647,48.6254215],[44.3889589,48.6253544],[44.3886204,48.6253096],[44.3881805,48.625417],[44.387982,48.6255797],[44.3847534,48.6255367],[44.3845012,48.6253825],[44.3841408,48.6252307],[44.3842075,48.6251031],[44.3841465,48.6249383],[44.3834862,48.6242272],[44.3831974,48.6241308],[44.3824763,48.6241825],[44.3808768,48.6237464],[44.3803181,48.62364],[44.3797747,48.6234152],[44.3794038,48.6233435],[44.3786812,48.6230717],[44.3778896,48.6229465],[44.3769409,48.6229071],[44.3758405,48.6226609],[44.3755951,48.6225099],[44.3748331,48.6227952],[44.3739445,48.6226665],[44.373352,48.6227057],[44.3730558,48.6227952],[44.3727764,48.6230414],[44.372768,48.6233603],[44.3725902,48.6235729],[44.3718623,48.6238638],[44.3696062,48.6238459],[44.3760338,48.6314471],[44.3606979,48.6288062],[44.3595298,48.6286384],[44.3580909,48.6286048],[44.3561675,48.6288489],[44.3491153,48.6299429],[44.3458961,48.6224076],[44.3432062,48.6159124],[44.3357442,48.598686],[44.3347108,48.5967851],[44.3329067,48.5945034],[44.3283822,48.5901544]]]}},{"type":"Feature","properties":{"name_ru":"Краснооктябрьский район","region_ru":"Волгоградская область","host_city_ru":"Волгоград","district_kind":"city","gid_2":"RU.CITY.VGG.KRASNOOKTYABRSKY","country":"RU"},"geometry":{"type":"Polygon","coordinates":[[[44.4891215,48.7896725],[44.4940756,48.7887975],[44.5003875,48.7877284],[44.5015505,48.7874178],[44.5020199,48.7872479],[44.5027716,48.7869162],[44.5037071,48.7864022],[44.5044787,48.7858181],[44.5049302,48.7854045],[44.50529,48.7849962],[44.5057576,48.7842964],[44.5059906,48.7838346],[44.5062119,48.783146],[44.5062901,48.7827026],[44.5062951,48.7820532],[44.5061896,48.781386],[44.5050725,48.7768755],[44.5049598,48.7761409],[44.5049539,48.7753515],[44.5049848,48.7748702],[44.5050955,48.7743755],[44.5052208,48.7739835],[44.5053947,48.7735915],[44.5056297,48.7731666],[44.5060177,48.772637],[44.5063342,48.7722654],[44.5068553,48.7717915],[44.5115911,48.7678921],[44.5122513,48.7674728],[44.5129793,48.767082],[44.5157966,48.7658208],[44.5168305,48.7653539],[44.5174689,48.7650576],[44.5179864,48.764799],[44.5187077,48.7643775],[44.5191753,48.7640755],[44.5196852,48.7637014],[44.5198796,48.7635593],[44.5205058,48.7630344],[44.5210251,48.762518],[44.522472,48.7608312],[44.5237266,48.7592923],[44.5240822,48.7587702],[44.5243514,48.7582771],[44.5244787,48.7579823],[44.5245643,48.7577696],[44.5249696,48.7565667],[44.5255531,48.7547013],[44.5258861,48.7539983],[44.5262678,48.7534385],[44.5266782,48.7528917],[44.5272067,48.7523494],[44.5279656,48.7517502],[44.5284726,48.7514366],[44.52891,48.7513261],[44.5300357,48.7507964],[44.530923,48.7504615],[44.5317847,48.7502062],[44.5378994,48.7487043],[44.539478,48.748073],[44.5404772,48.7474725],[44.5413725,48.7467571],[44.542105,48.7459321],[44.5426201,48.7449928],[44.5429124,48.7441669],[44.5431001,48.7434199],[44.5431063,48.7424848],[44.5430121,48.7419701],[44.5457816,48.7409766],[44.5458398,48.7405959],[44.5497393,48.7393294],[44.5498399,48.7394717],[44.5499848,48.739425],[44.5500573,48.7395191],[44.5504765,48.7393816],[44.5516711,48.741063],[44.5577245,48.7391919],[44.5653452,48.7368369],[44.5682037,48.7404423],[44.5872224,48.764006],[44.6104266,48.7820834],[44.6038155,48.785516],[44.5999893,48.7869081],[44.5985327,48.7867844],[44.5951325,48.7885951],[44.5924635,48.7867972],[44.5914645,48.7874345],[44.590996,48.7876839],[44.5908475,48.7876822],[44.590703,48.787658],[44.5905784,48.7876206],[44.5867112,48.7861678],[44.5865709,48.7861387],[44.5863185,48.7861202],[44.586,48.7862245],[44.5846634,48.7870798],[44.580519,48.7897319],[44.580474,48.7897784],[44.5804716,48.7898221],[44.5804904,48.7898541],[44.5824534,48.7912207],[44.5778829,48.7940793],[44.5767984,48.7933209],[44.5764378,48.7935531],[44.5773353,48.7941655],[44.5766381,48.7946353],[44.5757445,48.7946436],[44.5759743,48.8019217],[44.5759964,48.8026233],[44.57514,48.802147],[44.5742148,48.8014325],[44.5731505,48.8009579],[44.5728868,48.8009476],[44.5727803,48.8007184],[44.5725983,48.8007687],[44.5718142,48.80129],[44.5715481,48.8014302],[44.5712697,48.8020153],[44.5709791,48.8023066],[44.5707826,48.8024468],[44.5706147,48.8024683],[44.5701603,48.8028701],[44.5698765,48.8033511],[44.5695217,48.803315],[44.5693375,48.8032692],[44.5689568,48.803102],[44.5689609,48.8029537],[44.5689363,48.8028917],[44.568748,48.8028135],[44.568617,48.8027703],[44.5684369,48.8028377],[44.5682322,48.8028216],[44.5679988,48.8027596],[44.5665387,48.8020918],[44.5634056,48.8019455],[44.5629594,48.8020828],[44.5627138,48.8021835],[44.5623581,48.8021111],[44.5621023,48.8019014],[44.561929,48.8015812],[44.5618828,48.8014562],[44.5616919,48.80141],[44.560351,48.803549],[44.5581236,48.8029763],[44.5556278,48.8023913],[44.5549051,48.8022876],[44.5523945,48.8020972],[44.5498368,48.8019699],[44.5445475,48.8016273],[44.5362881,48.8010487],[44.5353913,48.8055169],[44.5309759,48.8054226],[44.5230427,48.808273],[44.5241124,48.8135121],[44.5227063,48.8133638],[44.5168832,48.8135803],[44.5145607,48.8131446],[44.5143587,48.813066],[44.5111796,48.8107821],[44.5091236,48.8081247],[44.5077077,48.8066155],[44.5041563,48.8045519],[44.5021123,48.8041957],[44.5015654,48.8041777],[44.5013559,48.8029452],[44.5011396,48.8020448],[44.5008838,48.8001574],[44.5003044,48.8003906],[44.4997036,48.8006238],[44.4989955,48.8005673],[44.4979012,48.8006379],[44.4973433,48.8007793],[44.4970053,48.8009913],[44.4967639,48.8013234],[44.4966459,48.801493],[44.496249,48.8015319],[44.49597,48.8014612],[44.4958252,48.8013022],[44.4955999,48.8008747],[44.4953687,48.8006631],[44.4951492,48.8006556],[44.4949615,48.8008181],[44.4945431,48.8010266],[44.4942909,48.8010089],[44.4941166,48.8009035],[44.4939725,48.8008691],[44.4936804,48.8009779],[44.493477,48.8009509],[44.4933551,48.8008226],[44.4931999,48.8002555],[44.493383,48.7992332],[44.4936476,48.799184],[44.4930783,48.796034],[44.4928484,48.7957591],[44.4922321,48.7948129],[44.4912862,48.7949788],[44.4907775,48.7940219],[44.49072,48.7938098],[44.4906969,48.7937248],[44.4905414,48.793475],[44.4904879,48.7933545],[44.4902361,48.7927443],[44.489273,48.7901127],[44.4891215,48.7896725]]]}},{"type":"Feature","properties":{"name_ru":"Красноармейский район","region_ru":"Волгоградская область","host_city_ru":"Волгоград","district_kind":"city","gid_2":"RU.CITY.VGG.KRASNOARMEYSKY","country":"RU"},"geometry":{"type":"Polygon","coordinates":[[[44.4215444,48.4273455],[44.4217817,48.4267381],[44.4250703,48.4259602],[44.4242047,48.424422],[44.4228634,48.4229522],[44.4223813,48.422317],[44.4237293,48.4218167],[44.4258763,48.4204772],[44.4268421,48.4200829],[44.4294129,48.4194327],[44.4297686,48.4193106],[44.4303657,48.4190359],[44.4309721,48.4186725],[44.4311228,48.4185822],[44.4485716,48.408125],[44.4492832,48.4078687],[44.4499737,48.4077116],[44.4551504,48.4071292],[44.4561752,48.4070531],[44.4580304,48.4071176],[44.4592324,48.4072306],[44.4609695,48.4075166],[44.4626097,48.4079322],[44.4738168,48.4116564],[44.4751963,48.4121678],[44.4760583,48.4126331],[44.4766697,48.4132029],[44.4795043,48.4168958],[44.4843063,48.4163878],[44.4838644,48.4145972],[44.4846008,48.4145228],[44.4846457,48.4147148],[44.486202,48.4145627],[44.4860885,48.4138781],[44.4872383,48.4137891],[44.4873026,48.4135576],[44.4875579,48.4135334],[44.4902395,48.4132786],[44.4905174,48.4146467],[44.4927682,48.4143741],[44.4933816,48.4148554],[44.4944941,48.4157625],[44.4952231,48.4159169],[44.4969,48.416391],[44.5056917,48.4188764],[44.5079221,48.4193028],[44.5367692,48.4201783],[44.5384629,48.4201888],[44.5746009,48.4169147],[44.5753355,48.4169173],[44.5816427,48.4192001],[44.5806978,48.4214113],[44.580358,48.4227038],[44.5799768,48.4274173],[44.5766552,48.4365541],[44.6076177,48.4481182],[44.6270252,48.4552915],[44.6294132,48.4507724],[44.6426639,48.455121],[44.6368147,48.4591705],[44.6409801,48.4607957],[44.6440652,48.4626893],[44.6602244,48.4515407],[44.6612097,48.4521157],[44.6609971,48.4524447],[44.6632142,48.4540024],[44.6635381,48.4538883],[44.6643869,48.454455],[44.6652493,48.4539861],[44.6665817,48.4532617],[44.680648,48.4623076],[44.6793866,48.463146],[44.6794067,48.4654566],[44.6787993,48.4703314],[44.6789274,48.4765763],[44.6789499,48.4869876],[44.6746377,48.4882352],[44.6641139,48.4912799],[44.6638861,48.5019746],[44.6770963,48.5089793],[44.6777845,48.5085006],[44.6806052,48.5100193],[44.6808683,48.5121473],[44.6873188,48.5160074],[44.6874279,48.5206522],[44.684143,48.5227727],[44.6736716,48.5282015],[44.6459089,48.5421063],[44.6384725,48.5445503],[44.6140748,48.5572157],[44.6087773,48.5525046],[44.5998482,48.5513053],[44.5901346,48.5497472],[44.5813737,48.5472617],[44.5725007,48.5441701],[44.565365,48.5425376],[44.5552964,48.5409298],[44.5482354,48.5408309],[44.5408195,48.5412514],[44.530863,48.541709],[44.5257447,48.542451],[44.5210187,48.5436877],[44.5085778,48.5463837],[44.4991631,48.5487209],[44.4929426,48.55133],[44.4861058,48.5548663],[44.4829664,48.5566543],[44.4779339,48.553359],[44.469575,48.5512006],[44.4702261,48.550079],[44.4683536,48.5495135],[44.4668134,48.5489514],[44.4718847,48.5428202],[44.46947,48.541078],[44.4631171,48.5364942],[44.4626657,48.5367818],[44.4604351,48.5352353],[44.4582036,48.5366709],[44.4569512,48.5357033],[44.4323258,48.5184261],[44.4299705,48.5166232],[44.4297332,48.5162621],[44.4289146,48.514876],[44.4282823,48.5141045],[44.4281739,48.5137456],[44.4283064,48.5134824],[44.428671,48.5130402],[44.4286676,48.5125411],[44.4280716,48.5116278],[44.4280415,48.5114244],[44.4281498,48.510886],[44.4282823,48.510515],[44.4289506,48.5097054],[44.4289441,48.5094911],[44.4286466,48.5089795],[44.4279482,48.5083772],[44.4277042,48.5079313],[44.4260134,48.5063938],[44.4291911,48.5050793],[44.4313511,48.5042838],[44.4465078,48.5007203],[44.4499106,48.4999358],[44.4521594,48.4993956],[44.4597533,48.4976248],[44.4597875,48.4976168],[44.4498724,48.4956169],[44.4498505,48.4956125],[44.4692139,48.4855886],[44.4898297,48.4835578],[44.4971349,48.4819644],[44.4989906,48.4790469],[44.4989977,48.4790357],[44.4982264,48.4788997],[44.4965529,48.4790983],[44.4950002,48.4790876],[44.4930225,48.4800956],[44.4914279,48.4805115],[44.4900404,48.4810115],[44.4882908,48.4774493],[44.4861094,48.4780801],[44.4844169,48.4769199],[44.4844009,48.4769089],[44.4905263,48.4762448],[44.4959344,48.4761494],[44.5031344,48.4746339],[44.5071807,48.4719669],[44.5093954,48.4717469],[44.5094973,48.4717476],[44.5094911,48.4717373],[44.5095001,48.4717364],[44.509173,48.4712153],[44.5091626,48.4711987],[44.5088126,48.4706292],[44.5086756,48.470406],[44.5086351,48.4703393],[44.5076908,48.4687943],[44.5077431,48.4686887],[44.508498,48.4672338],[44.5113251,48.4667715],[44.5114926,48.4667543],[44.5115185,48.4667781],[44.5125109,48.4683027],[44.5127911,48.4687331],[44.5131872,48.4693309],[44.5145135,48.4713327],[44.514682,48.4712943],[44.5150853,48.4719981],[44.5152129,48.4722213],[44.5147758,48.4725464],[44.5145888,48.4726098],[44.5146257,48.4726578],[44.5141255,48.4730297],[44.5141306,48.4730351],[44.5174036,48.4764812],[44.5179775,48.4770853],[44.5204299,48.4769393],[44.5214929,48.4772941],[44.5217364,48.4768705],[44.5238045,48.4774199],[44.5237996,48.4774294],[44.5236558,48.4777095],[44.5236593,48.4777106],[44.5258737,48.4784295],[44.526082,48.4781481],[44.5292809,48.479351],[44.5294804,48.4793312],[44.537278,48.481421],[44.5397118,48.4821078],[44.5403339,48.4822835],[44.540924,48.4824501],[44.5416089,48.4826183],[44.5428499,48.4832836],[44.5442561,48.483077],[44.5451789,48.4828409],[44.5462803,48.4827219],[44.5462881,48.482721],[44.5460352,48.4824633],[44.5454052,48.4818208],[44.5444308,48.480828],[44.54434,48.4807352],[44.5435071,48.4798842],[44.5434029,48.4797785],[44.5433853,48.4797607],[44.5422965,48.4786543],[44.5422694,48.4786406],[44.5411453,48.4775015],[44.5411834,48.477484],[44.5410834,48.4773878],[44.5410484,48.4774039],[44.5410481,48.4774036],[44.5410501,48.4774027],[44.5410438,48.4773968],[44.5410508,48.4773933],[44.5410114,48.4773569],[44.5410032,48.4773609],[44.540986,48.4773445],[44.5407622,48.4771416],[44.5406784,48.4771524],[44.5405826,48.4770358],[44.5405785,48.4770308],[44.5406362,48.4769784],[44.5406415,48.4769736],[44.5386913,48.474993],[44.5371738,48.4734491],[44.5355531,48.4718192],[44.5353231,48.4718629],[44.5351238,48.4716695],[44.5350283,48.4715501],[44.5350046,48.4712977],[44.5349403,48.4712723],[44.5346355,48.4711383],[44.5347363,48.4709886],[44.5347338,48.4709861],[44.5347385,48.4709791],[44.5337855,48.4700097],[44.5337834,48.4700105],[44.5337562,48.4699826],[44.5337582,48.4699819],[44.5327474,48.4689536],[44.5325964,48.4688003],[44.5324561,48.4686568],[44.5323265,48.468526],[44.5319792,48.4681698],[44.5294966,48.4656479],[44.5293406,48.4656959],[44.5292013,48.4655682],[44.5293307,48.4654922],[44.5293259,48.4654874],[44.5293341,48.4654826],[44.5282511,48.4643826],[44.5280323,48.4642542],[44.5278967,48.4641453],[44.5278434,48.4639673],[44.5254337,48.4615122],[44.5212448,48.4572514],[44.5211959,48.4572017],[44.5211396,48.4571727],[44.5209055,48.4569598],[44.5208613,48.4568625],[44.5207676,48.4567815],[44.5203725,48.4563611],[44.5195857,48.455551],[44.5191988,48.4551338],[44.5185743,48.4543393],[44.5182434,48.4537899],[44.5180392,48.4537859],[44.517979,48.4536253],[44.51811,48.4535815],[44.5181062,48.4535749],[44.5181159,48.4535716],[44.5166892,48.4511114],[44.5166783,48.4510929],[44.5164606,48.4510772],[44.5164013,48.450895],[44.5165205,48.4508421],[44.5165173,48.4508364],[44.516527,48.4508321],[44.5158601,48.4496846],[44.5119912,48.4430468],[44.5115632,48.4423056],[44.5114457,48.4421003],[44.5111907,48.4416745],[44.5112209,48.4416447],[44.5112203,48.4416436],[44.5112293,48.4416348],[44.5110206,48.4412638],[44.5109575,48.4412546],[44.5103649,48.4402106],[44.5103834,48.4402069],[44.5103786,48.4401997],[44.5103922,48.440197],[44.51034,48.4401187],[44.5103133,48.4400647],[44.510278,48.4400605],[44.510013,48.4396039],[44.5099309,48.4394617],[44.509634,48.43895],[44.5096121,48.4389348],[44.5095418,48.4389303],[44.509471,48.4388316],[44.5095126,48.4388116],[44.5095104,48.4388071],[44.5095217,48.4388016],[44.5094646,48.4386795],[44.5072249,48.4348273],[44.5063992,48.4334068],[44.5061971,48.433059],[44.5059825,48.4330438],[44.5059714,48.4329405],[44.5060912,48.4329045],[44.5060878,48.4328987],[44.5061016,48.4328946],[44.5049011,48.4308339],[44.5045817,48.4303619],[44.5039153,48.4295507],[44.5031859,48.4288686],[44.5014114,48.4297066],[44.5014153,48.4297096],[44.5014002,48.4297168],[44.5035434,48.4313301],[44.5046639,48.4309386],[44.5050926,48.4320436],[44.502684,48.43282],[44.498688,48.433693],[44.4986917,48.4337004],[44.498626,48.4337148],[44.4987281,48.4339298],[44.4980652,48.4340756],[44.4980451,48.4340717],[44.4979503,48.4338604],[44.4978069,48.4335442],[44.4977052,48.4335655],[44.4971061,48.4336909],[44.4970679,48.4336989],[44.4969553,48.4334828],[44.4969375,48.4334434],[44.4967631,48.4330723],[44.4965301,48.432543],[44.4964118,48.4323157],[44.496291,48.4320655],[44.4960115,48.4315191],[44.4958762,48.4312384],[44.4964537,48.431122],[44.4965902,48.4310924],[44.4965865,48.4310851],[44.496601,48.4310819],[44.4965056,48.4308894],[44.4971787,48.4307531],[44.4994962,48.4300371],[44.4994892,48.4300325],[44.4995074,48.4300269],[44.4951631,48.4271639],[44.4947175,48.4269264],[44.4944329,48.4265484],[44.494258,48.4263111],[44.493636,48.4250652],[44.4936185,48.425031],[44.4883959,48.4261212],[44.4852695,48.4268551],[44.4761953,48.4289569],[44.4752738,48.4291699],[44.4751038,48.42925],[44.4749966,48.4292733],[44.4747992,48.4292795],[44.4714779,48.4300466],[44.4709145,48.4301757],[44.4703434,48.430311],[44.4687323,48.4307204],[44.4678932,48.4309782],[44.4672289,48.4312026],[44.4665621,48.4314213],[44.4664525,48.4313777],[44.4662648,48.4314407],[44.4662654,48.4314493],[44.466253,48.4314535],[44.4662576,48.4315212],[44.4653295,48.4318257],[44.4649327,48.4319484],[44.4647471,48.4320021],[44.4642968,48.4320723],[44.463713,48.4320855],[44.4598642,48.4320632],[44.4591858,48.4321164],[44.4586365,48.4321915],[44.457874,48.4323543],[44.4569375,48.4325916],[44.4545462,48.4331919],[44.4481856,48.4348024],[44.4434951,48.4359903],[44.4431543,48.4360766],[44.4430837,48.4361246],[44.4429541,48.4361595],[44.442775,48.4361727],[44.4399116,48.4368982],[44.4393099,48.4370521],[44.4391993,48.437001],[44.4389308,48.4370684],[44.4389305,48.4370806],[44.4389199,48.4370833],[44.4389181,48.4371521],[44.4378103,48.4374353],[44.4372264,48.4376195],[44.4368323,48.4377692],[44.4364933,48.4379172],[44.4364999,48.4379246],[44.4364824,48.4379322],[44.4365668,48.438028],[44.4363893,48.4380993],[44.4363974,48.4381068],[44.4363785,48.4381144],[44.4376904,48.4393032],[44.4376905,48.4393033],[44.438464,48.4401811],[44.4327206,48.4430432],[44.4327289,48.4430496],[44.4327107,48.4430586],[44.433305,48.4435167],[44.43224,48.4438222],[44.4313655,48.4437244],[44.4289866,48.4434892],[44.427326,48.4420908],[44.4267599,48.4413149],[44.4273844,48.439827],[44.4317361,48.4377921],[44.4364172,48.4377027],[44.4365739,48.4376343],[44.4366455,48.4376329],[44.4368806,48.4375303],[44.4370946,48.437449],[44.4372938,48.4373733],[44.4377093,48.4372422],[44.4387777,48.436969],[44.438874,48.4370114],[44.4391513,48.4369422],[44.4391526,48.4369298],[44.4391624,48.4369273],[44.4391684,48.4368691],[44.4397848,48.4367115],[44.4433685,48.4358031],[44.4480587,48.434615],[44.4527256,48.4334328],[44.4527598,48.4334966],[44.4543951,48.4330809],[44.4543903,48.4330714],[44.4544069,48.4330672],[44.4543799,48.4330139],[44.4553584,48.432768],[44.4553521,48.4327589],[44.4553701,48.4327544],[44.4553635,48.4327449],[44.4554625,48.4327148],[44.455476,48.4327385],[44.4568105,48.4324032],[44.4577549,48.4321639],[44.4585421,48.4319958],[44.459122,48.4319165],[44.4598346,48.4318604],[44.4624737,48.4318757],[44.4627505,48.4318368],[44.462993,48.4318453],[44.4631912,48.4318798],[44.4636971,48.4318828],[44.464242,48.4318703],[44.4646328,48.4318094],[44.4647879,48.4317644],[44.4651776,48.4316438],[44.4661156,48.431336],[44.4662105,48.4313783],[44.4663911,48.4313192],[44.4663906,48.4313105],[44.466403,48.4313064],[44.4663992,48.4312429],[44.4670718,48.4310223],[44.46774,48.4307966],[44.4687429,48.4305088],[44.4689982,48.4304508],[44.4691982,48.4304007],[44.4694356,48.4303428],[44.469637,48.4302932],[44.4698181,48.4302487],[44.4700496,48.4301941],[44.4706302,48.4300508],[44.4708839,48.429989],[44.4712455,48.4299008],[44.4722072,48.4296685],[44.4741099,48.4292522],[44.4751642,48.429008],[44.475408,48.4289546],[44.4754884,48.4289693],[44.4761074,48.4288191],[44.4761044,48.4288108],[44.4761195,48.4288072],[44.4761019,48.4287592],[44.4851498,48.4266626],[44.4877316,48.4260744],[44.4882809,48.4259272],[44.494028,48.4247273],[44.4946393,48.4245167],[44.4953045,48.424407],[44.4961894,48.4243965],[44.4969725,48.4244856],[44.497524,48.4246113],[44.4981985,48.4248518],[44.4985832,48.4249288],[44.4988217,48.4247551],[44.499197,48.4250352],[44.4993816,48.4251729],[44.4991287,48.4253284],[44.4991305,48.4253298],[44.4991164,48.4253385],[44.5029131,48.4282343],[44.5033691,48.4286882],[44.5041794,48.4294461],[44.5048613,48.4302757],[44.5050432,48.4305444],[44.5052477,48.4305425],[44.5053004,48.430676],[44.5052002,48.4307506],[44.5052009,48.4307518],[44.5051893,48.4307605],[44.5064148,48.4328628],[44.5064892,48.4329911],[44.5075172,48.4347593],[44.5098015,48.4386862],[44.5099226,48.4388737],[44.5102245,48.4393941],[44.5103067,48.4395362],[44.5104718,48.4401225],[44.5112563,48.4411958],[44.5112252,48.44122],[44.5112265,48.4412222],[44.5112167,48.4412298],[44.5114254,48.4416029],[44.5114878,48.4416117],[44.5117395,48.4420318],[44.5118579,48.4422382],[44.5122858,48.442979],[44.5161561,48.4496164],[44.5168342,48.4507831],[44.5169853,48.4510437],[44.5184309,48.4535353],[44.5185296,48.4537041],[44.5188634,48.4542588],[44.5194753,48.4550368],[44.5198543,48.4554456],[44.5211409,48.4567673],[44.5213696,48.4569994],[44.5215574,48.4569762],[44.5216748,48.4571002],[44.5215968,48.4571776],[44.521599,48.4571799],[44.5215915,48.4571873],[44.5244334,48.460115],[44.525701,48.461404],[44.5271127,48.4628418],[44.5285178,48.4642414],[44.5306316,48.4664195],[44.5322486,48.4680615],[44.5325953,48.4684175],[44.5326567,48.4684937],[44.5329863,48.4688291],[44.5330343,48.4688632],[44.5350251,48.4708879],[44.5352965,48.4711621],[44.5358158,48.471684],[44.5376989,48.4735997],[44.5376845,48.4736068],[44.5378939,48.4737981],[44.5389616,48.4748842],[44.5425814,48.4785595],[44.543657,48.4796518],[44.5436746,48.4796698],[44.5437788,48.4797755],[44.544612,48.4806269],[44.5447028,48.4807195],[44.5456774,48.4817122],[44.5457063,48.4817328],[44.5462428,48.4822799],[44.5465604,48.4826037],[44.5467258,48.482774],[44.5468251,48.4828737],[44.5482196,48.4842953],[44.548435,48.4842369],[44.5485222,48.4842132],[44.5497322,48.4838851],[44.5502012,48.4838705],[44.5502958,48.4838988],[44.5503814,48.483932],[44.5503861,48.4839353],[44.550443,48.4839749],[44.5504536,48.4839904],[44.550584,48.484181],[44.5506858,48.48433],[44.5506896,48.4843356],[44.5506868,48.484339],[44.5509329,48.4846985],[44.5510329,48.4848452],[44.5510516,48.4848723],[44.5513811,48.485375],[44.5516693,48.4858509],[44.5517213,48.4859367],[44.5528823,48.4878534],[44.5531003,48.4882132],[44.5548407,48.4880367],[44.5554199,48.487978],[44.5556427,48.487922],[44.5584642,48.4872134],[44.5586008,48.4871792],[44.5643852,48.4857262],[44.565333,48.4854881],[44.5658684,48.4853536],[44.5663437,48.4852342],[44.5669721,48.4850763],[44.5669997,48.4850694],[44.5682202,48.4860663],[44.5690756,48.4867769],[44.5726004,48.4896966],[44.5726187,48.4896875],[44.5729355,48.4899487],[44.5730969,48.489816],[44.5814457,48.4829542],[44.5814831,48.4829155],[44.5814701,48.4828724],[44.5815332,48.4828638],[44.5826031,48.4817584],[44.5837762,48.4805461],[44.5837707,48.4805432],[44.5837745,48.4805392],[44.5836603,48.4804789],[44.5851061,48.4790894],[44.5851663,48.4791093],[44.5852584,48.4790141],[44.5857608,48.4780996],[44.5866211,48.4770118],[44.587212,48.4759666],[44.5877134,48.4738303],[44.5877117,48.473829],[44.5877129,48.473824],[44.5872668,48.4734939],[44.5886277,48.4719565],[44.5890949,48.471246],[44.5902019,48.4690745],[44.5910102,48.4683404],[44.591273,48.4679259],[44.5925645,48.4674146],[44.593452,48.4679705],[44.5949313,48.4660295],[44.6038422,48.4683837],[44.6038715,48.4683523],[44.6067713,48.4656024],[44.610923,48.4666652],[44.612238,48.46714],[44.6134038,48.4675782],[44.6185719,48.462393],[44.6214522,48.4598931],[44.6215711,48.4599341],[44.6222773,48.4591767],[44.6264488,48.4555554],[44.6264475,48.4555549],[44.6264499,48.4555528],[44.6073122,48.448352],[44.5953138,48.4437681],[44.5760735,48.4365387],[44.5762255,48.4362251],[44.5767828,48.4347523],[44.5779165,48.4316949],[44.5779523,48.4316366],[44.5779185,48.4315227],[44.5780155,48.4312857],[44.5781801,48.4309319],[44.5784614,48.4302086],[44.5793193,48.427982],[44.5793882,48.4277488],[44.5795973,48.426933],[44.5800047,48.4228567],[44.5799919,48.4227099],[44.5803299,48.4213648],[44.5811064,48.4193757],[44.581098,48.4193246],[44.5810802,48.4192735],[44.5810092,48.4192479],[44.580945,48.4192206],[44.580024,48.4188684],[44.576044,48.4173595],[44.5753446,48.4171079],[44.5749728,48.4170519],[44.5748054,48.4170423],[44.5747459,48.4170424],[44.5742445,48.4170819],[44.5646495,48.4179506],[44.5645072,48.4179635],[44.5591867,48.418447],[44.5461263,48.4196321],[44.5396094,48.4202223],[44.5387359,48.420298],[44.537928,48.4203368],[44.5370511,48.4203457],[44.5302926,48.4201522],[44.5164212,48.4197555],[44.509534,48.419556],[44.5092235,48.4195493],[44.5087845,48.4195297],[44.5082064,48.4194865],[44.5074318,48.4193781],[44.5064227,48.4192029],[44.5059364,48.4190939],[44.5049253,48.4188244],[44.5044291,48.4186891],[44.5042286,48.4186337],[44.5037952,48.4184708],[44.5023956,48.4180655],[44.5002845,48.4174906],[44.4984203,48.4170087],[44.4982037,48.416965],[44.4978569,48.4168677],[44.4976003,48.416795],[44.4973455,48.4167228],[44.4973648,48.4166857],[44.4972636,48.4166527],[44.4970637,48.4165962],[44.4970043,48.4166263],[44.4968075,48.4165711],[44.4968011,48.4165833],[44.4967934,48.4165812],[44.4955691,48.4189047],[44.4940313,48.4193848],[44.4940192,48.4193947],[44.4940177,48.4193952],[44.4926079,48.4205413],[44.4887435,48.4211878],[44.4856866,48.4201171],[44.4847559,48.4164942],[44.4843445,48.416537],[44.4823768,48.4167438],[44.4807491,48.4169171],[44.4797416,48.4170203],[44.4793472,48.4170663],[44.4791231,48.4170731],[44.4790842,48.4169446],[44.4791272,48.4169048],[44.4791855,48.4168958],[44.4791812,48.4168873],[44.4791999,48.4168844],[44.4790677,48.4166258],[44.4790584,48.4166103],[44.4790408,48.4165812],[44.4790376,48.4165818],[44.4786345,48.4160184],[44.4773905,48.4143646],[44.4771837,48.4141362],[44.476921,48.4138229],[44.476905,48.4138289],[44.4767263,48.4136321],[44.4763474,48.4131454],[44.4759922,48.4128539],[44.4752873,48.4123659],[44.4751693,48.4123196],[44.475176,48.4123158],[44.4751732,48.4123148],[44.4751916,48.4123042],[44.4748092,48.4121655],[44.4747954,48.4121733],[44.474331,48.4119916],[44.4677406,48.4097845],[44.4650993,48.4089109],[44.4632635,48.4083137],[44.4631509,48.4082617],[44.4631431,48.4082746],[44.4626646,48.4081189],[44.4619625,48.4078764],[44.4616541,48.4078297],[44.4610958,48.4076981],[44.4602958,48.4075376],[44.4602939,48.4075373],[44.4599019,48.4077862],[44.4595498,48.4077105],[44.4590851,48.4073609],[44.457985,48.4072548],[44.4571828,48.407206],[44.4567798,48.4071916],[44.4563109,48.4071969],[44.4558767,48.4072231],[44.4551774,48.4072918],[44.4509837,48.4077763],[44.4504495,48.4078408],[44.4499746,48.4079116],[44.4494897,48.4080148],[44.4491015,48.408144],[44.4486157,48.4083776],[44.4477522,48.408888],[44.4472443,48.4091877],[44.4469749,48.4093543],[44.4371675,48.4152179],[44.4330159,48.4177008],[44.4321591,48.4182516],[44.4308396,48.4190076],[44.4308434,48.4190119],[44.4308246,48.4190226],[44.4309108,48.4191184],[44.4307153,48.4192288],[44.430507,48.4191902],[44.4303567,48.4192553],[44.4298454,48.4194764],[44.4293123,48.419637],[44.4284386,48.4198596],[44.4276076,48.4200663],[44.4268469,48.42028],[44.4260481,48.4206288],[44.4254566,48.4209745],[44.4248869,48.4213363],[44.4248245,48.4213768],[44.4241601,48.4218006],[44.4238271,48.4219748],[44.4231766,48.4222583],[44.4228772,48.4223687],[44.4227406,48.4224036],[44.4227492,48.4224134],[44.4227263,48.4224193],[44.4244865,48.424427],[44.4246425,48.424701],[44.4262507,48.4275267],[44.4314982,48.4271791],[44.4336926,48.4253005],[44.43446,48.4249356],[44.435038,48.4248073],[44.4353917,48.4246774],[44.4370787,48.4249731],[44.436945,48.4262681],[44.4364301,48.4276257],[44.4327677,48.4291824],[44.431888,48.4290859],[44.431135,48.4286305],[44.4308759,48.4285256],[44.4308402,48.4284521],[44.4292734,48.4275043],[44.4247858,48.4286535],[44.4235938,48.4290056],[44.4215444,48.4273455]]]}},{"type":"Feature","properties":{"name_ru":"Советский район","region_ru":"Волгоградская область","host_city_ru":"Волгоград","district_kind":"city","gid_2":"RU.CITY.VGG.SOVETSKY","country":"RU"},"geometry":{"type":"Point","coordinates":[44.4499597,48.6620427]}},{"type":"Feature","properties":{"name_ru":"Тракторозаводский район","region_ru":"Волгоградская область","host_city_ru":"Волгоград","district_kind":"city","gid_2":"RU.CITY.VGG.TRAKTOROZAVODSKY","country":"RU"},"geometry":{"type":"Polygon","coordinates":[[[44.5230427,48.808273],[44.5309759,48.8054226],[44.5353913,48.8055169],[44.5362881,48.8010487],[44.5445475,48.8016273],[44.5498368,48.8019699],[44.5523945,48.8020972],[44.5549051,48.8022876],[44.5556278,48.8023913],[44.5581236,48.8029763],[44.560351,48.803549],[44.5616919,48.80141],[44.5618828,48.8014562],[44.561929,48.8015812],[44.5621023,48.8019014],[44.5623581,48.8021111],[44.5627138,48.8021835],[44.5629594,48.8020828],[44.5634056,48.8019455],[44.5665387,48.8020918],[44.5679988,48.8027596],[44.5682322,48.8028216],[44.5684369,48.8028377],[44.568617,48.8027703],[44.568748,48.8028135],[44.5689363,48.8028917],[44.5689609,48.8029537],[44.5689568,48.803102],[44.5693375,48.8032692],[44.5695217,48.803315],[44.5698765,48.8033511],[44.5701603,48.8028701],[44.5706147,48.8024683],[44.5707826,48.8024468],[44.5709791,48.8023066],[44.5712697,48.8020153],[44.5715481,48.8014302],[44.5718142,48.80129],[44.5725983,48.8007687],[44.5727803,48.8007184],[44.5728868,48.8009476],[44.5731505,48.8009579],[44.5742148,48.8014325],[44.57514,48.802147],[44.5759964,48.8026233],[44.5759743,48.8019217],[44.5757445,48.7946436],[44.5766381,48.7946353],[44.5773353,48.7941655],[44.5764378,48.7935531],[44.5767984,48.7933209],[44.5778829,48.7940793],[44.5824534,48.7912207],[44.5804904,48.7898541],[44.5804716,48.7898221],[44.580474,48.7897784],[44.580519,48.7897319],[44.5846634,48.7870798],[44.586,48.7862245],[44.5863185,48.7861202],[44.5865709,48.7861387],[44.5867112,48.7861678],[44.5905784,48.7876206],[44.590703,48.787658],[44.5908475,48.7876822],[44.590996,48.7876839],[44.5914645,48.7874345],[44.5924635,48.7867972],[44.5951325,48.7885951],[44.5985327,48.7867844],[44.5999893,48.7869081],[44.6038155,48.785516],[44.6104266,48.7820834],[44.625576,48.7932468],[44.6333576,48.7931101],[44.6596329,48.8184502],[44.654993,48.8241048],[44.6588927,48.8278921],[44.6542834,48.829319],[44.6558014,48.8313879],[44.65864,48.830665],[44.6677095,48.8679782],[44.6597162,48.8709341],[44.659338,48.871047],[44.6589866,48.8712358],[44.6587399,48.8712711],[44.6579003,48.8716663],[44.6579318,48.8717678],[44.6571949,48.872132],[44.6567792,48.872416],[44.6562642,48.8728606],[44.6561462,48.8729806],[44.6557063,48.87288],[44.6556005,48.8729383],[44.6556229,48.8729747],[44.6550867,48.8732346],[44.6536122,48.8741077],[44.6528215,48.874419],[44.6527542,48.874289],[44.6523849,48.8742969],[44.6517259,48.8745948],[44.6515381,48.8748488],[44.6511948,48.8749794],[44.6508408,48.8749617],[44.6504226,48.875156],[44.6502783,48.875286],[44.6498418,48.8754423],[44.6494595,48.8756582],[44.6492582,48.875871],[44.6489546,48.8760566],[44.6483433,48.8761832],[44.648141,48.8763385],[44.6471427,48.8767655],[44.6467128,48.8768451],[44.6462896,48.8768478],[44.6454446,48.8768395],[44.6446226,48.8767155],[44.6439893,48.8766312],[44.6433043,48.8767061],[44.642706,48.8767413],[44.6418942,48.8766078],[44.6408898,48.8766587],[44.6399991,48.8767876],[44.639318,48.8770504],[44.6387225,48.8771844],[44.6380949,48.8771809],[44.6375102,48.8770998],[44.6356104,48.8770157],[44.63337,48.8770962],[44.6312821,48.8772762],[44.6299463,48.8774631],[44.62866,48.8775788],[44.6280849,48.8776995],[44.6268672,48.8784122],[44.626084,48.878705],[44.6259069,48.8786979],[44.6257728,48.8784122],[44.6257163,48.8781402],[44.6256157,48.8779422],[44.6248939,48.8785199],[44.6185763,48.8825155],[44.6188154,48.8890622],[44.6180054,48.8890717],[44.6021347,48.8843631],[44.5964769,48.8828154],[44.5898155,48.8799494],[44.5869083,48.8787136],[44.5870963,48.8785483],[44.5873153,48.8783557],[44.587605,48.8785533],[44.5880663,48.8787085],[44.5885472,48.8787418],[44.5895449,48.8781634],[44.5897512,48.8780709],[44.5895255,48.8774314],[44.5896223,48.8772964],[44.5902869,48.8771675],[44.5931144,48.8775442],[44.5941928,48.8769024],[44.5981927,48.8756134],[44.6001293,48.8735156],[44.6004308,48.8731889],[44.5980668,48.8722114],[44.5979996,48.8705069],[44.5991108,48.8690233],[44.5973039,48.8671073],[44.5960207,48.8675886],[44.5957804,48.867312],[44.5959492,48.8669017],[44.5965839,48.8665956],[44.5977206,48.8662408],[44.599148,48.8653337],[44.5993423,48.8646724],[44.5990205,48.8641501],[44.5989132,48.8635432],[44.5994922,48.8630741],[44.6001577,48.8626821],[44.6002633,48.8621312],[44.6003079,48.8618986],[44.5998673,48.8610756],[44.5989884,48.8602597],[44.597108,48.8598687],[44.5900573,48.8544393],[44.5875746,48.8525274],[44.5846691,48.8502897],[44.5844671,48.8501342],[44.5814896,48.8477731],[44.5735094,48.8423389],[44.5728636,48.8421351],[44.5722198,48.8420363],[44.5705944,48.8422305],[44.5701082,48.8423375],[44.5686901,48.8430566],[44.5678693,48.8435332],[44.5659471,48.8450033],[44.5649081,48.8453619],[44.5643831,48.8456031],[44.562757,48.8461527],[44.5629377,48.846379],[44.5599616,48.8475496],[44.5589321,48.8460268],[44.5574849,48.846465],[44.5579941,48.8475646],[44.557883,48.8475966],[44.5557812,48.8482026],[44.5547839,48.8472384],[44.5536272,48.8476773],[44.550631,48.8451228],[44.5514283,48.8447828],[44.5537329,48.8438003],[44.5519693,48.842895],[44.5447143,48.8389227],[44.5389145,48.8355067],[44.5347823,48.8322846],[44.5338962,48.8314922],[44.5286605,48.8268102],[44.5274943,48.825779],[44.526928,48.8251366],[44.5263528,48.8243059],[44.5260741,48.8237639],[44.5257329,48.8226171],[44.5241124,48.8135121],[44.5230427,48.808273]]]}}]}